PROBA-1                 
1 26958U 01049B   26191.30131000  .00002565  00000+0  16719-3 0  9995
2 26958  97.9607 200.6414 0055954  45.7973 314.7831 15.07602673347109
CUTE-1 (CO-55)          
1 27844U 03031E   26191.00816836  .00000182  00000+0  97603-4 0  9992
2 27844  98.6739 199.2802 0010718 116.0719 244.1564 14.24349450194929
CUBESAT XI-IV (CO-57)   
1 27848U 03031J   26190.51611381  .00000164  00000+0  91111-4 0  9997
2 27848  98.6771 198.4889 0010342 134.3964 225.8063 14.23632552194559
APRIZESAT 4             
1 35684U 09041D   26191.04876308  .00000436  00000+0  58815-4 0  9998
2 35684  98.1404 266.8244 0041995 246.6745 113.0046 14.83909503914751
APRIZESAT 3             
1 35686U 09041F   26191.23713804  .00001084  00000+0  98317-4 0  9993
2 35686  98.2087 345.5692 0061138 352.2425   7.7843 14.96300654919826
PROBA-2                 
1 36037U 09059B   26191.00512926  .00000121  00000+0  38810-4 0  9993
2 36037  98.2458  14.0423 0012641 205.2097 154.8484 14.54872230884842
APRIZESAT 5             
1 37792U 11044E   26189.76089673  .00000678  00000+0  92979-4 0  9990
2 37792  98.2450 123.4135 0050828 293.9839  65.6055 14.81120449801980
APRIZESAT 6             
1 37793U 11044F   26190.25163867  .00000565  00000+0  86960-4 0  9993
2 37793  98.2345 101.2003 0043542  17.1771 143.8073 14.76951131800407
PROBA-V                 
1 39159U 13021A   26190.68051474  .00000061  00000+0  44770-4 0  9999
2 39159  98.3601 168.1783 0005384  72.5879 287.5889 14.23602758684315
APRIZESAT 7             
1 39416U 13066A   26191.29805834  .00000788  00000+0  83185-4 0  9998
2 39416  97.7720 144.1876 0036893 133.0204 227.4116 14.91612963684676
APRIZESAT 8             
1 39425U 13066K   26191.27908036  .00000504  00000+0  60493-4 0  9997
2 39425  97.8227 138.4264 0045089 208.2637 151.6132 14.87691705683107
BUGSAT-1 (TITA)         
1 40014U 14033E   26191.27421981  .00005108  00000+0  26825-3 0  9992
2 40014  98.0425 285.1768 0029001 101.9577 258.4908 15.15849719659330
SAUDISAT 4              
1 40016U 14033G   26190.63924046  .00000355  00000+0  53590-4 0  9992
2 40016  97.7610 336.0009 0044728   2.2228 357.9175 14.79571960649392
APRIZESAT 9             
1 40018U 14033J   26190.60588905  .00000477  00000+0  77298-4 0  9997
2 40018  97.9087 323.2598 0067246 127.5578 233.1765 14.74247790646869
APRIZESAT 10            
1 40019U 14033K   26190.30352681  .00000426  00000+0  74622-4 0  9997
2 40019  97.9675 316.7729 0078260 202.2274 157.5534 14.70906398645503
TECHDEMOSAT-1 (TDS-1)   
1 40076U 14037H   26190.70365853  .00004644  00000+0  26272-3 0  9996
2 40076  98.3824 185.1544 0006366 175.4658 184.6630 15.13630061651633
TECHNOSAT               
1 42829U 17042E   26191.25337010  .00002611  00000+0  18714-3 0  9992
2 42829  97.4302 348.0375 0017856  19.2762 340.9137 15.05091341490173
FLYING LAPTOP           
1 42831U 17042G   26191.31458238  .00002206  00000+0  17530-3 0  9993
2 42831  97.4787 345.9737 0019865  47.9662 312.3249 15.01291877489920
HAWK-A                  
1 43765U 18099H   26191.12017380  .00004682  00000+0  18795-3 0  9995
2 43765  97.3904 243.0590 0034202 201.9017 158.0761 15.24923091416592
HAWK-B                  
1 43794U 18099AN  26191.10350195  .00004222  00000+0  17988-3 0  9992
2 43794  97.3952 242.4091 0030894 220.3198 139.5749 15.23078236416528
HAWK-C                  
1 43799U 18099AT  26191.04446000  .00005917  00000+0  21155-3 0  9994
2 43799  97.3884 244.0095 0039783 202.1098 157.8428 15.28438375417406
SALSAT                  
1 46495U 20068K   26190.25177099  .00005482  00000+0  19084-3 0  9995
2 46495  97.8858 194.6644 0008593 215.0810 144.9864 15.30117525318739
HAWK-2C                 
1 47502U 21006CT  26191.16695632  .00004802  00000+0  14383-3 0  9999
2 47502  97.2272 235.0203 0008552 115.2036 245.0096 15.34948446303024
HAWK-2A                 
1 47505U 21006CW  26191.16922953  .00004863  00000+0  14559-3 0  9993
2 47505  97.2315 235.7136 0008049 118.3840 241.8217 15.34963523303027
HAWK-2B                 
1 47508U 21006CZ  26191.09798807  .00005376  00000+0  16003-3 0  9993
2 47508  97.2185 233.9393 0008613 116.9526 243.2599 15.35088886303011
HAWK-3B                 
1 48931U 21059BE  26191.00679719  .00035395  00000+0  27709-3 0  9992
2 48931  97.6649  29.9062 0004089 217.8107 142.2868 15.71525502281435
HAWK-3C                 
1 48948U 21059BX  26191.00649202  .00037702  00000+0  29488-3 0  9994
2 48948  97.6774  35.6306 0004404 218.4113 141.6836 15.71533406281432
HAWK-3A                 
1 48957U 21059CG  26191.00637890  .00037305  00000+0  29181-3 0  9993
2 48957  97.6711  32.8165 0004344 219.9841 140.1101 15.71532739281439
HAWK-5C                 
1 52754U 22057Y   26190.87143071  .00014501  00000+0  24089-3 0  9994
2 52754  97.6610 352.0184 0003309   7.5352 352.5949 15.52200356229867
HAWK-5B                 
1 52756U 22057AA  26190.74230529  .00013532  00000+0  22497-3 0  9991
2 52756  97.6627 350.2329 0003978 354.7757   5.3452 15.52193096229848
